{
  "norad_id": 64083,
  "name": "STARLINK-34126",
  "history": [
    {
      "epoch": "2026-03-28T07:08:52.232064Z",
      "apogee_km": 484.07145620164465,
      "perigee_km": 481.9403852104733,
      "latitude_deg": 1.8646245322221912e-05,
      "longitude_deg": 163.75409914066537,
      "height_km": 482.58661453390323,
      "semi_major_axis_km": 6861.142920706058,
      "eccentricity": 0.0001553,
      "inclination_deg": 43.0044,
      "raan_deg": 96.692,
      "arg_perigee_deg": 280.6339,
      "mean_anomaly_deg": 79.4338,
      "mean_motion_rev_day": 15.27594419
    },
    {
      "epoch": "2026-03-29T23:56:56.069088Z",
      "apogee_km": 483.9228983087096,
      "perigee_km": 482.0816429740398,
      "latitude_deg": -2.672716326171226e-05,
      "longitude_deg": -99.54457684422952,
      "height_km": 483.29487613527436,
      "semi_major_axis_km": 6861.139270641374,
      "eccentricity": 0.00013418,
      "inclination_deg": 42.9996,
      "raan_deg": 87.085,
      "arg_perigee_deg": 235.8906,
      "mean_anomaly_deg": 124.1818,
      "mean_motion_rev_day": 15.27595638
    },
    {
      "epoch": "2026-03-30T10:56:01.478688Z",
      "apogee_km": 484.8685616817156,
      "perigee_km": 481.0683325966538,
      "latitude_deg": 1.2312572432207663e-05,
      "longitude_deg": 92.65249413117841,
      "height_km": 482.4633585231844,
      "semi_major_axis_km": 6861.105447139184,
      "eccentricity": 0.00027694,
      "inclination_deg": 43.0043,
      "raan_deg": 84.5057,
      "arg_perigee_deg": 278.5743,
      "mean_anomaly_deg": 81.4795,
      "mean_motion_rev_day": 15.27606934
    }
  ]
}